{
    "links": {
        "self": "http://www.neowsapp.com/rest/v1/neo/3685272?api_key=iIulBulltgU6a56xZRHN4H3l9WmuAYTsLGpBGhQ2"
    },
    "id": "3685272",
    "neo_reference_id": "3685272",
    "name": "(2014 QO390)",
    "designation": "2014 QO390",
    "nasa_jpl_url": "http://ssd.jpl.nasa.gov/sbdb.cgi?sstr=3685272",
    "absolute_magnitude_h": 21.1,
    "estimated_diameter": {
        "kilometers": {
            "estimated_diameter_min": 0.160160338,
            "estimated_diameter_max": 0.358129403
        },
        "meters": {
            "estimated_diameter_min": 160.1603379786,
            "estimated_diameter_max": 358.1294030194
        },
        "miles": {
            "estimated_diameter_min": 0.0995189894,
            "estimated_diameter_max": 0.2225312253
        },
        "feet": {
            "estimated_diameter_min": 525.4604432536,
            "estimated_diameter_max": 1174.9652706022
        }
    },
    "is_potentially_hazardous_asteroid": true,
    "close_approach_data": [
        {
            "close_approach_date": "2014-08-26",
            "close_approach_date_full": "2014-Aug-26 06:45",
            "epoch_date_close_approach": 1409035500000,
            "relative_velocity": {
                "kilometers_per_second": "35.8502001342",
                "kilometers_per_hour": "129060.7204832125",
                "miles_per_hour": "80193.3126802495"
            },
            "miss_distance": {
                "astronomical": "0.1095377343",
                "lunar": "42.6101786427",
                "kilometers": "16386611.735905941",
                "miles": "10182168.3792703458"
            },
            "orbiting_body": "Earth"
        }
    ],
    "orbital_data": {
        "orbit_id": "6",
        "orbit_determination_date": "2019-12-18 11:19:34",
        "first_observation_date": "2014-08-31",
        "last_observation_date": "2014-09-02",
        "data_arc_in_days": 2,
        "observations_used": 16,
        "orbit_uncertainty": "9",
        "minimum_orbit_intersection": ".0274737",
        "jupiter_tisserand_invariant": "3.648",
        "epoch_osculation": "2456901.5",
        "eccentricity": ".8590961307407438",
        "semi_major_axis": "1.66733513463557",
        "inclination": "24.61194166707473",
        "ascending_node_longitude": "324.998116951663",
        "orbital_period": "786.3805796290617",
        "perihelion_distance": ".2349339718220547",
        "perihelion_argument": "232.4856129657226",
        "aphelion_distance": "3.099736297449084",
        "perihelion_time": "2456856.850697960925",
        "mean_anomaly": "20.44016491563034",
        "mean_motion": ".4577936044272777",
        "equinox": "J2000",
        "orbit_class": {
            "orbit_class_type": "APO",
            "orbit_class_description": "Near-Earth asteroid orbits which cross the Earth’s orbit similar to that of 1862 Apollo",
            "orbit_class_range": "a (semi-major axis) > 1.0 AU; q (perihelion) < 1.017 AU"
        }
    },
    "is_sentry_object": false
}